[{"OBJECT_NAME":"SDA_1664","OBJECT_ID":"2025-230A","EPOCH":"2026-03-09T22:53:15.948384","MEAN_MOTION":13.84453987,"ECCENTRICITY":0.00026169,"INCLINATION":81.2983,"RA_OF_ASC_NODE":303.7448,"ARG_OF_PERICENTER":69.1255,"MEAN_ANOMALY":291.0182,"EPHEMERIS_TYPE":0,"CLASSIFICATION_TYPE":"U","NORAD_CAT_ID":65974,"ELEMENT_SET_NO":999,"REV_AT_EPOCH":2007,"BSTAR":-0.026604975,"MEAN_MOTION_DOT":-0.00029653,"MEAN_MOTION_DDOT":0},{"OBJECT_NAME":"FENGYUN 1C DEB","OBJECT_ID":"1999-025AMX","EPOCH":"2026-03-09T01:25:26.611392","MEAN_MOTION":13.3623615,"ECCENTRICITY":0.03799745,"INCLINATION":98.6311,"RA_OF_ASC_NODE":118.2632,"ARG_OF_PERICENTER":39.7482,"MEAN_ANOMALY":323.0843,"EPHEMERIS_TYPE":0,"CLASSIFICATION_TYPE":"U","NORAD_CAT_ID":30616,"ELEMENT_SET_NO":999,"REV_AT_EPOCH":92853,"BSTAR":0.0011132645,"MEAN_MOTION_DOT":8.31e-6,"MEAN_MOTION_DDOT":0}]
